start=new Date('2022-03-25T00:00:00.000Z').valueOf();
sats=[{"NORAD_CAT_ID":"45188","MEAN_ANOMALY":"301.9411","SITE":"AFETR","APOAPSIS":"548.464","REF_FRAME":"TEME","MEAN_ELEMENT_THEORY":"SGP4","OBJECT_ID":"2020-012L","BSTAR":"0.00004976300000","TIME_SYSTEM":"UTC","DECAY_DATE":null,"MEAN_MOTION_DDOT":"0.0000000000000","REV_AT_EPOCH":"11743","GP_ID":"199619112","FILE":"3373054","ELEMENT_SET_NO":"999","TLE_LINE1":"1 45188U 20012L   22083.91552639  .00000460  00000-0  49763-4 0  9999","TLE_LINE2":"2 45188  53.0576  16.9617 0001818  58.1754 301.9411 15.06402917117432","EPOCH":"2022-03-24T21:58:21.480096","RCS_SIZE":"LARGE","MEAN_MOTION_DOT":"0.00000460","OBJECT_NAME":"STARLINK-1228","SEMIMAJOR_AXIS":"6925.340","CENTER_NAME":"EARTH","CLASSIFICATION_TYPE":"U","RA_OF_ASC_NODE":"16.9617","PERIOD":"95.592","OBJECT_TYPE":"PAYLOAD","PERIAPSIS":"545.946","ECCENTRICITY":"0.00018180","MEAN_MOTION":"15.06402917","INCLINATION":"53.0576","ARG_OF_PERICENTER":"58.1754","EPHEMERIS_TYPE":"0","COUNTRY_CODE":"US","LAUNCH_DATE":"2020-02-17"},{"FILE":"3373054","GP_ID":"199618863","REV_AT_EPOCH":"11410","MEAN_MOTION_DDOT":"0.0000000000000","EPOCH":"2022-03-24T14:59:02.726304","TLE_LINE1":"1 45189U 20012M   22083.62433711  .00001498  00000-0  11947-3 0  9991","TLE_LINE2":"2 45189  53.0556  58.2608 0001920  57.9012 302.2163 15.06400304114105","ELEMENT_SET_NO":"999","APOAPSIS":"548.542","SITE":"AFETR","MEAN_ANOMALY":"302.2163","NORAD_CAT_ID":"45189","TIME_SYSTEM":"UTC","DECAY_DATE":null,"MEAN_ELEMENT_THEORY":"SGP4","OBJECT_ID":"2020-012M","BSTAR":"0.00011947000000","REF_FRAME":"TEME","PERIAPSIS":"545.883","OBJECT_TYPE":"PAYLOAD","ECCENTRICITY":"0.00019200","RA_OF_ASC_NODE":"58.2608","PERIOD":"95.592","CLASSIFICATION_TYPE":"U","LAUNCH_DATE":"2020-02-17","EPHEMERIS_TYPE":"0","COUNTRY_CODE":"US","ARG_OF_PERICENTER":"57.9012","MEAN_MOTION":"15.06400304","INCLINATION":"53.0556","OBJECT_NAME":"STARLINK-1230","MEAN_MOTION_DOT":"0.00001498","RCS_SIZE":"LARGE","CENTER_NAME":"EARTH","SEMIMAJOR_AXIS":"6925.348"},{"CENTER_NAME":"EARTH","SEMIMAJOR_AXIS":"6925.354","OBJECT_NAME":"STARLINK-1234","MEAN_MOTION_DOT":"0.00001661","RCS_SIZE":"LARGE","LAUNCH_DATE":"2020-02-17","EPHEMERIS_TYPE":"0","COUNTRY_CODE":"US","ARG_OF_PERICENTER":"40.9597","MEAN_MOTION":"15.06398285","INCLINATION":"53.0565","ECCENTRICITY":"0.00025280","OBJECT_TYPE":"PAYLOAD","PERIAPSIS":"545.468","RA_OF_ASC_NODE":"16.9895","PERIOD":"95.592","CLASSIFICATION_TYPE":"U","TIME_SYSTEM":"UTC","DECAY_DATE":null,"OBJECT_ID":"2020-012N","MEAN_ELEMENT_THEORY":"SGP4","BSTAR":"0.00013038000000","REF_FRAME":"TEME","APOAPSIS":"548.970","SITE":"AFETR","MEAN_ANOMALY":"319.1582","NORAD_CAT_ID":"45190","EPOCH":"2022-03-24T21:47:44.440800","TLE_LINE1":"1 45190U 20012N   22083.90815325  .00001661  00000-0  13038-3 0  9994","TLE_LINE2":"2 45190  53.0565  16.9895 0002528  40.9597 319.1582 15.06398285117380","ELEMENT_SET_NO":"999","FILE":"3373054","GP_ID":"199617611","REV_AT_EPOCH":"11738","MEAN_MOTION_DDOT":"0.0000000000000"},{"BSTAR":"0.00011907000000","OBJECT_ID":"2020-012P","MEAN_ELEMENT_THEORY":"SGP4","REF_FRAME":"TEME","DECAY_DATE":null,"TIME_SYSTEM":"UTC","MEAN_ANOMALY":"308.9492","NORAD_CAT_ID":"45191","SITE":"AFETR","APOAPSIS":"548.406","ELEMENT_SET_NO":"999","EPOCH":"2022-03-24T21:31:48.870624","TLE_LINE2":"2 45191  53.0566  57.0297 0001741  51.1652 308.9492 15.06404317114136","TLE_LINE1":"1 45191U 20012P   22083.89709341  .00001493  00000-0  11907-3 0  9999","REV_AT_EPOCH":"11413","MEAN_MOTION_DDOT":"0.0000000000000","FILE":"3373054","GP_ID":"199618361","CENTER_NAME":"EARTH","SEMIMAJOR_AXIS":"6925.335","RCS_SIZE":"LARGE","MEAN_MOTION_DOT":"0.00001493","OBJECT_NAME":"STARLINK-1236","ARG_OF_PERICENTER":"51.1652","INCLINATION":"53.0566","MEAN_MOTION":"15.06404317","LAUNCH_DATE":"2020-02-17","COUNTRY_CODE":"US","EPHEMERIS_TYPE":"0","CLASSIFICATION_TYPE":"U","OBJECT_TYPE":"PAYLOAD","ECCENTRICITY":"0.00017410","PERIAPSIS":"545.995","PERIOD":"95.592","RA_OF_ASC_NODE":"57.0297"},{"ELEMENT_SET_NO":"999","EPOCH":"2022-03-24T22:30:12.476160","TLE_LINE1":"1 45192U 20012Q   22083.93764440  .00000286  00000-0  38100-4 0  9990","TLE_LINE2":"2 45192  53.0546  56.8391 0001928  61.2384 298.8799 15.06397445116938","REV_AT_EPOCH":"11693","MEAN_MOTION_DDOT":"0.0000000000000","FILE":"3373054","GP_ID":"199618613","MEAN_ELEMENT_THEORY":"SGP4","OBJECT_ID":"2020-012Q","BSTAR":"0.00003810000000","REF_FRAME":"TEME","TIME_SYSTEM":"UTC","DECAY_DATE":null,"MEAN_ANOMALY":"298.8799","NORAD_CAT_ID":"45192","APOAPSIS":"548.557","SITE":"AFETR","ARG_OF_PERICENTER":"61.2384","MEAN_MOTION":"15.06397445","INCLINATION":"53.0546","LAUNCH_DATE":"2020-02-17","EPHEMERIS_TYPE":"0","COUNTRY_CODE":"US","CLASSIFICATION_TYPE":"U","ECCENTRICITY":"0.00019280","OBJECT_TYPE":"PAYLOAD","PERIAPSIS":"545.886","RA_OF_ASC_NODE":"56.8391","PERIOD":"95.592","CENTER_NAME":"EARTH","SEMIMAJOR_AXIS":"6925.356","MEAN_MOTION_DOT":"0.00000286","RCS_SIZE":"LARGE","OBJECT_NAME":"STARLINK-1237"},{"SEMIMAJOR_AXIS":"6925.313","CENTER_NAME":"EARTH","OBJECT_NAME":"STARLINK-1239","MEAN_MOTION_DOT":"0.00003652","RCS_SIZE":"LARGE","COUNTRY_CODE":"US","EPHEMERIS_TYPE":"0","LAUNCH_DATE":"2020-02-17","INCLINATION":"53.0546","MEAN_MOTION":"15.06411578","ARG_OF_PERICENTER":"52.2902","RA_OF_ASC_NODE":"58.0890","PERIOD":"95.591","OBJECT_TYPE":"PAYLOAD","PERIAPSIS":"545.683","ECCENTRICITY":"0.00021590","CLASSIFICATION_TYPE":"U","DECAY_DATE":null,"TIME_SYSTEM":"UTC","REF_FRAME":"TEME","BSTAR":"0.00026387000000","OBJECT_ID":"2020-012R","MEAN_ELEMENT_THEORY":"SGP4","SITE":"AFETR","APOAPSIS":"548.673","NORAD_CAT_ID":"45193","MEAN_ANOMALY":"307.8282","TLE_LINE2":"2 45193  53.0546  58.0890 0002159  52.2902 307.8282 15.06411578116831","TLE_LINE1":"1 45193U 20012R   22083.66119383  .00003652  00000-0  26387-3 0  9994","EPOCH":"2022-03-24T15:52:07.146912","ELEMENT_SET_NO":"999","GP_ID":"199619363","FILE":"3373054","MEAN_MOTION_DDOT":"0.0000000000000","REV_AT_EPOCH":"11683"},{"SEMIMAJOR_AXIS":"6925.364","CENTER_NAME":"EARTH","RCS_SIZE":"LARGE","MEAN_MOTION_DOT":"0.00001218","OBJECT_NAME":"STARLINK-1240","INCLINATION":"53.0556","MEAN_MOTION":"15.06395123","ARG_OF_PERICENTER":"47.5260","EPHEMERIS_TYPE":"0","COUNTRY_CODE":"US","LAUNCH_DATE":"2020-02-17","CLASSIFICATION_TYPE":"U","PERIOD":"95.592","RA_OF_ASC_NODE":"59.5698","ECCENTRICITY":"0.00022650","OBJECT_TYPE":"PAYLOAD","PERIAPSIS":"545.660","REF_FRAME":"TEME","BSTAR":"0.00010065000000","OBJECT_ID":"2020-012S","MEAN_ELEMENT_THEORY":"SGP4","DECAY_DATE":null,"TIME_SYSTEM":"UTC","NORAD_CAT_ID":"45194","MEAN_ANOMALY":"312.5920","APOAPSIS":"548.797","SITE":"AFETR","ELEMENT_SET_NO":"999","TLE_LINE2":"2 45194  53.0556  59.5698 0002265  47.5260 312.5920 15.06395123116735","TLE_LINE1":"1 45194U 20012S   22083.33315349  .00001218  00000-0  10065-3 0  9991","EPOCH":"2022-03-24T07:59:44.461536","MEAN_MOTION_DDOT":"0.0000000000000","REV_AT_EPOCH":"11673","GP_ID":"199571832","FILE":"3372185"},{"SEMIMAJOR_AXIS":"6923.141","CENTER_NAME":"EARTH","RCS_SIZE":"LARGE","MEAN_MOTION_DOT":"0.00009891","OBJECT_NAME":"STARLINK-1241","MEAN_MOTION":"15.07120702","INCLINATION":"53.0533","ARG_OF_PERICENTER":"90.8167","COUNTRY_CODE":"US","EPHEMERIS_TYPE":"0","LAUNCH_DATE":"2020-02-17","CLASSIFICATION_TYPE":"U","PERIOD":"95.546","RA_OF_ASC_NODE":"58.0507","ECCENTRICITY":"0.00029160","OBJECT_TYPE":"PAYLOAD","PERIAPSIS":"542.987","REF_FRAME":"TEME","OBJECT_ID":"2020-012T","MEAN_ELEMENT_THEORY":"SGP4","BSTAR":"0.00066891000000","TIME_SYSTEM":"UTC","DECAY_DATE":null,"NORAD_CAT_ID":"45195","MEAN_ANOMALY":"269.3157","SITE":"AFETR","APOAPSIS":"547.024","ELEMENT_SET_NO":"999","TLE_LINE1":"1 45195U 20012T   22083.64936077  .00009891  00000-0  66891-3 0  9996","TLE_LINE2":"2 45195  53.0533  58.0507 0002916  90.8167 269.3157 15.07120702116881","EPOCH":"2022-03-24T15:35:04.770528","MEAN_MOTION_DDOT":"0.0000000000000","REV_AT_EPOCH":"11688","GP_ID":"199617862","FILE":"3373054"},{"PERIAPSIS":"545.896","OBJECT_TYPE":"PAYLOAD","ECCENTRICITY":"0.00018510","RA_OF_ASC_NODE":"59.0424","PERIOD":"95.591","CLASSIFICATION_TYPE":"U","LAUNCH_DATE":"2020-02-17","EPHEMERIS_TYPE":"0","COUNTRY_CODE":"US","ARG_OF_PERICENTER":"53.1752","MEAN_MOTION":"15.06411618","INCLINATION":"53.0557","OBJECT_NAME":"STARLINK-1244","RCS_SIZE":"LARGE","MEAN_MOTION_DOT":"0.00006970","CENTER_NAME":"EARTH","SEMIMAJOR_AXIS":"6925.313","FILE":"3372856","GP_ID":"199594161","REV_AT_EPOCH":"11595","MEAN_MOTION_DDOT":"0.0000000000000","EPOCH":"2022-03-24T10:44:16.448640","TLE_LINE1":"1 45196U 20012U   22083.44741260  .00006970  00000-0  48618-3 0  9995","TLE_LINE2":"2 45196  53.0557  59.0424 0001851  53.1752 306.9406 15.06411618115956","ELEMENT_SET_NO":"999","APOAPSIS":"548.460","SITE":"AFETR","MEAN_ANOMALY":"306.9406","NORAD_CAT_ID":"45196","TIME_SYSTEM":"UTC","DECAY_DATE":null,"MEAN_ELEMENT_THEORY":"SGP4","OBJECT_ID":"2020-012U","BSTAR":"0.00048618000000","REF_FRAME":"TEME"},{"SEMIMAJOR_AXIS":"6925.329","CENTER_NAME":"EARTH","RCS_SIZE":"LARGE","MEAN_MOTION_DOT":"0.00001045","OBJECT_NAME":"STARLINK-1269","INCLINATION":"53.0555","MEAN_MOTION":"15.06406240","ARG_OF_PERICENTER":"56.1757","EPHEMERIS_TYPE":"0","COUNTRY_CODE":"US","LAUNCH_DATE":"2020-02-17","CLASSIFICATION_TYPE":"U","PERIOD":"95.592","RA_OF_ASC_NODE":"57.0159","PERIAPSIS":"545.867","OBJECT_TYPE":"PAYLOAD","ECCENTRICITY":"0.00019170","REF_FRAME":"TEME","BSTAR":"0.00008904600000","OBJECT_ID":"2020-012V","MEAN_ELEMENT_THEORY":"SGP4","DECAY_DATE":null,"TIME_SYSTEM":"UTC","NORAD_CAT_ID":"45197","MEAN_ANOMALY":"303.9414","SITE":"AFETR","APOAPSIS":"548.522","ELEMENT_SET_NO":"999","TLE_LINE2":"2 45197  53.0555  57.0159 0001917  56.1757 303.9414 15.06406240116894","TLE_LINE1":"1 45197U 20012V   22083.90077769  .00001045  00000-0  89046-4 0  9992","EPOCH":"2022-03-24T21:37:07.192416","MEAN_MOTION_DDOT":"0.0000000000000","REV_AT_EPOCH":"11689","GP_ID":"199618864","FILE":"3373054"}];
